{"fetched_at":"2026-07-18T17:29:36.480Z","source":"https://celestrak.org/NORAD/elements/gp.php?GROUP=spire&FORMAT=JSON","constellation":"spire","records":[{"OBJECT_NAME":"LEMUR-2-HUBBLE-4","OBJECT_ID":"2025-135AP","EPOCH":"2026-07-18T06:57:10.490400","CLASSIFICATION_TYPE":"U","MEAN_MOTION":14.93690492,"ECCENTRICITY":0.00028994,"INCLINATION":97.7722,"RA_OF_ASC_NODE":312.8365,"ARG_OF_PERICENTER":154.5978,"MEAN_ANOMALY":205.5384,"EPHEMERIS_TYPE":0,"NORAD_CAT_ID":64565,"ELEMENT_SET_NO":999,"REV_AT_EPOCH":5851,"BSTAR":0.000049345132,"MEAN_MOTION_DOT":0.00000465,"MEAN_MOTION_DDOT":0},{"OBJECT_NAME":"LEMUR-2-SEJONG-2","OBJECT_ID":"2025-135BL","EPOCH":"2026-07-18T04:32:50.775648","CLASSIFICATION_TYPE":"U","MEAN_MOTION":14.96925635,"ECCENTRICITY":0.00041537,"INCLINATION":97.7709,"RA_OF_ASC_NODE":314.006,"ARG_OF_PERICENTER":204.416,"MEAN_ANOMALY":155.6865,"EPHEMERIS_TYPE":0,"NORAD_CAT_ID":64586,"ELEMENT_SET_NO":999,"REV_AT_EPOCH":5858,"BSTAR":0.00020858251,"MEAN_MOTION_DOT":0.00002337,"MEAN_MOTION_DDOT":0},{"OBJECT_NAME":"LEMUR-2-HUBBLE-5","OBJECT_ID":"2025-135BT","EPOCH":"2026-07-18T00:42:36.072288","CLASSIFICATION_TYPE":"U","MEAN_MOTION":14.94217355,"ECCENTRICITY":0.00045071,"INCLINATION":97.7742,"RA_OF_ASC_NODE":313.2515,"ARG_OF_PERICENTER":223.8608,"MEAN_ANOMALY":136.2255,"EPHEMERIS_TYPE":0,"NORAD_CAT_ID":64840,"ELEMENT_SET_NO":999,"REV_AT_EPOCH":5851,"BSTAR":0.000040306253,"MEAN_MOTION_DOT":0.00000375,"MEAN_MOTION_DDOT":0},{"OBJECT_NAME":"LEMUR-2-KARENDARRELL","OBJECT_ID":"2025-135BU","EPOCH":"2026-07-17T20:43:59.094624","CLASSIFICATION_TYPE":"U","MEAN_MOTION":15.00521478,"ECCENTRICITY":0.00126903,"INCLINATION":97.7722,"RA_OF_ASC_NODE":315.0336,"ARG_OF_PERICENTER":96.6097,"MEAN_ANOMALY":263.6572,"EPHEMERIS_TYPE":0,"NORAD_CAT_ID":64841,"ELEMENT_SET_NO":999,"REV_AT_EPOCH":5861,"BSTAR":0.0003246888,"MEAN_MOTION_DOT":0.00004039,"MEAN_MOTION_DDOT":0},{"OBJECT_NAME":"LEMUR-2-LUCILLE-ROSE","OBJECT_ID":"2025-135BV","EPOCH":"2026-07-18T00:53:52.516896","CLASSIFICATION_TYPE":"U","MEAN_MOTION":15.00508221,"ECCENTRICITY":0.00152192,"INCLINATION":97.7706,"RA_OF_ASC_NODE":315.2421,"ARG_OF_PERICENTER":180.5819,"MEAN_ANOMALY":179.5389,"EPHEMERIS_TYPE":0,"NORAD_CAT_ID":65403,"ELEMENT_SET_NO":999,"REV_AT_EPOCH":5326,"BSTAR":0.00027538625,"MEAN_MOTION_DOT":0.00003417,"MEAN_MOTION_DDOT":0},{"OBJECT_NAME":"LEMUR-2-AFFIE-WAUWIE","OBJECT_ID":"2025-248C","EPOCH":"2026-07-18T07:27:31.722048","CLASSIFICATION_TYPE":"U","MEAN_MOTION":15.2833878,"ECCENTRICITY":0.00091655,"INCLINATION":45.392,"RA_OF_ASC_NODE":306.2107,"ARG_OF_PERICENTER":269.5503,"MEAN_ANOMALY":90.4336,"EPHEMERIS_TYPE":0,"NORAD_CAT_ID":66295,"ELEMENT_SET_NO":999,"REV_AT_EPOCH":3935,"BSTAR":0.00045936026,"MEAN_MOTION_DOT":0.00012645,"MEAN_MOTION_DDOT":0},{"OBJECT_NAME":"OTTER SDM","OBJECT_ID":"2025-276N","EPOCH":"2026-07-18T04:35:27.551040","CLASSIFICATION_TYPE":"U","MEAN_MOTION":15.20076153,"ECCENTRICITY":0.00044702,"INCLINATION":97.4198,"RA_OF_ASC_NODE":272.1578,"ARG_OF_PERICENTER":240.2344,"MEAN_ANOMALY":119.8447,"EPHEMERIS_TYPE":0,"NORAD_CAT_ID":66678,"ELEMENT_SET_NO":999,"REV_AT_EPOCH":3512,"BSTAR":0.00013688316,"MEAN_MOTION_DOT":0.00002887,"MEAN_MOTION_DDOT":0},{"OBJECT_NAME":"LEMUR-2-STAS-GORBUK","OBJECT_ID":"2025-276W","EPOCH":"2026-07-18T03:32:38.213664","CLASSIFICATION_TYPE":"U","MEAN_MOTION":15.19675181,"ECCENTRICITY":0.00037715,"INCLINATION":97.4233,"RA_OF_ASC_NODE":272.1663,"ARG_OF_PERICENTER":233.5789,"MEAN_ANOMALY":126.5098,"EPHEMERIS_TYPE":0,"NORAD_CAT_ID":66686,"ELEMENT_SET_NO":999,"REV_AT_EPOCH":3511,"BSTAR":0.00013433395,"MEAN_MOTION_DOT":0.00002798,"MEAN_MOTION_DDOT":0},{"OBJECT_NAME":"LEMUR-2-TEODOR","OBJECT_ID":"2025-276DG","EPOCH":"2026-07-18T03:54:59.191776","CLASSIFICATION_TYPE":"U","MEAN_MOTION":15.21355081,"ECCENTRICITY":0.00021882,"INCLINATION":97.4137,"RA_OF_ASC_NODE":272.4569,"ARG_OF_PERICENTER":85.3117,"MEAN_ANOMALY":274.8369,"EPHEMERIS_TYPE":0,"NORAD_CAT_ID":66768,"ELEMENT_SET_NO":999,"REV_AT_EPOCH":3515,"BSTAR":0.00013300346,"MEAN_MOTION_DOT":0.00002911,"MEAN_MOTION_DDOT":0},{"OBJECT_NAME":"LEMUR-2-LAILA","OBJECT_ID":"2025-276DQ","EPOCH":"2026-07-18T03:10:51.942432","CLASSIFICATION_TYPE":"U","MEAN_MOTION":15.21581149,"ECCENTRICITY":0.00028719,"INCLINATION":97.416,"RA_OF_ASC_NODE":272.5673,"ARG_OF_PERICENTER":90.0248,"MEAN_ANOMALY":270.1317,"EPHEMERIS_TYPE":0,"NORAD_CAT_ID":66776,"ELEMENT_SET_NO":999,"REV_AT_EPOCH":3515,"BSTAR":0.0001322501,"MEAN_MOTION_DOT":0.00002913,"MEAN_MOTION_DDOT":0},{"OBJECT_NAME":"LEMUR-2-CELIJO-SB-PK","OBJECT_ID":"2025-276DW","EPOCH":"2026-07-18T04:28:05.217600","CLASSIFICATION_TYPE":"U","MEAN_MOTION":15.00302816,"ECCENTRICITY":0.00068255,"INCLINATION":97.5186,"RA_OF_ASC_NODE":268.9404,"ARG_OF_PERICENTER":57.0953,"MEAN_ANOMALY":303.0927,"EPHEMERIS_TYPE":0,"NORAD_CAT_ID":66781,"ELEMENT_SET_NO":999,"REV_AT_EPOCH":2727,"BSTAR":0.00023647274,"MEAN_MOTION_DOT":0.00002908,"MEAN_MOTION_DDOT":0},{"OBJECT_NAME":"LEMUR-2-FINNIAN","OBJECT_ID":"2025-276DX","EPOCH":"2026-07-17T10:08:06.796032","CLASSIFICATION_TYPE":"U","MEAN_MOTION":15.00631674,"ECCENTRICITY":0.0007425,"INCLINATION":97.5344,"RA_OF_ASC_NODE":268.4746,"ARG_OF_PERICENTER":350.8943,"MEAN_ANOMALY":9.2145,"EPHEMERIS_TYPE":0,"NORAD_CAT_ID":66782,"ELEMENT_SET_NO":999,"REV_AT_EPOCH":2453,"BSTAR":0.00011408,"MEAN_MOTION_DOT":0.00001385,"MEAN_MOTION_DDOT":0},{"OBJECT_NAME":"LEMUR-2-STARLIGHT","OBJECT_ID":"2025-276DY","EPOCH":"2026-07-18T03:19:58.804320","CLASSIFICATION_TYPE":"U","MEAN_MOTION":14.99377389,"ECCENTRICITY":0.00147072,"INCLINATION":97.5232,"RA_OF_ASC_NODE":268.7205,"ARG_OF_PERICENTER":38.5159,"MEAN_ANOMALY":321.7111,"EPHEMERIS_TYPE":0,"NORAD_CAT_ID":66783,"ELEMENT_SET_NO":999,"REV_AT_EPOCH":3483,"BSTAR":0.00031536198,"MEAN_MOTION_DOT":0.0000381,"MEAN_MOTION_DDOT":0},{"OBJECT_NAME":"LEMUR-2-TARTIFLETTE","OBJECT_ID":"2025-276DZ","EPOCH":"2026-07-18T03:17:43.418112","CLASSIFICATION_TYPE":"U","MEAN_MOTION":14.99360163,"ECCENTRICITY":0.00138849,"INCLINATION":97.5232,"RA_OF_ASC_NODE":268.7268,"ARG_OF_PERICENTER":47.0055,"MEAN_ANOMALY":313.233,"EPHEMERIS_TYPE":0,"NORAD_CAT_ID":66784,"ELEMENT_SET_NO":999,"REV_AT_EPOCH":3483,"BSTAR":0.00028564031,"MEAN_MOTION_DOT":0.00003443,"MEAN_MOTION_DDOT":0},{"OBJECT_NAME":"LEMUR-2-VUKASIN","OBJECT_ID":"2025-276EA","EPOCH":"2026-07-18T04:07:40.129536","CLASSIFICATION_TYPE":"U","MEAN_MOTION":15.00560911,"ECCENTRICITY":0.00025889,"INCLINATION":97.5212,"RA_OF_ASC_NODE":269.1239,"ARG_OF_PERICENTER":45.3127,"MEAN_ANOMALY":314.8308,"EPHEMERIS_TYPE":0,"NORAD_CAT_ID":66785,"ELEMENT_SET_NO":999,"REV_AT_EPOCH":3479,"BSTAR":0.00018593784,"MEAN_MOTION_DOT":0.00002289,"MEAN_MOTION_DDOT":0},{"OBJECT_NAME":"LEMUR-2-HOTSPUR-TOM","OBJECT_ID":"2025-276EB","EPOCH":"2026-07-18T03:09:56.669760","CLASSIFICATION_TYPE":"U","MEAN_MOTION":14.99258162,"ECCENTRICITY":0.00136898,"INCLINATION":97.5213,"RA_OF_ASC_NODE":268.6947,"ARG_OF_PERICENTER":38.66,"MEAN_ANOMALY":321.5601,"EPHEMERIS_TYPE":0,"NORAD_CAT_ID":66786,"ELEMENT_SET_NO":999,"REV_AT_EPOCH":3476,"BSTAR":0.00023551954,"MEAN_MOTION_DOT":0.00002821,"MEAN_MOTION_DDOT":0}]}
